H1 CPF  1  DLR 2021 05 24 10  6442 technosat            
H2  1704205 6203    42829 2021 05 24 00 00 00 2021 05 31 00 00 00    60 1 1  0 0 0
H9
10 0 59363  28800.000000  0       6729335.673       1358646.975       1275644.439
10 0 59363  28860.000000  0       6651760.491       1251700.477       1714191.976
10 0 59363  28920.000000  0       6545298.800       1140303.019       2145489.257
10 0 59363  28980.000000  0       6410362.416       1025173.474       2567712.292
10 0 59363  29040.000000  0       6247489.671        907042.293       2979075.759
10 0 59363  29100.000000  0       6057343.168        786647.328       3377840.668
10 0 59363  29160.000000  0       5840706.851        664729.576       3762321.874
10 0 59363  29220.000000  0       5598482.427        542028.952       4130895.114
10 0 59363  29280.000000  0       5331685.458        419280.208       4482003.727
10 0 59363  29340.000000  0       5041440.993        297208.871       4814165.258
10 0 59363  29400.000000  0       4728978.573        176527.217       5125977.695
10 0 59363  29460.000000  0       4395626.776         57930.356       5416125.292
10 0 59363  29520.000000  0       4042807.309        -57907.551       5683383.934
10 0 59363  29580.000000  0       3672028.779       -170336.831       5926626.076
10 0 59363  29640.000000  0       3284880.146       -278735.680       6144825.317
10 0 59363  29700.000000  0       2883023.837       -382513.437       6337060.559
10 0 59363  29760.000000  0       2468188.584       -481113.626       6502519.725
10 0 59363  29820.000000  0       2042161.982       -574016.786       6640503.062
10 0 59363  29880.000000  0       1606782.787       -660743.098       6750426.036
10 0 59363  29940.000000  0       1163932.929       -740854.815       6831821.710
10 0 59363  30000.000000  0        715529.389       -813958.383       6884342.572
10 0 59363  30060.000000  0        263516.024       -879706.328       6907761.969
10 0 59363  30120.000000  0       -190144.813       -937798.913       6901975.084
10 0 59363  30180.000000  0       -643480.671       -987985.523       6866999.412
10 0 59363  30240.000000  0      -1094517.508      -1030065.782       6802974.814
10 0 59363  30300.000000  0      -1541288.209      -1063890.362       6710163.053
10 0 59363  30360.000000  0      -1981841.073      -1089361.526       6588946.873
10 0 59363  30420.000000  0      -2414248.271      -1106433.393       6439828.633
10 0 59363  30480.000000  0      -2836614.254      -1115111.905       6263428.548
10 0 59363  30540.000000  0      -3247084.195      -1115454.526       6060482.467
10 0 59363  30600.000000  0      -3643852.308      -1107569.689       5831839.046
10 0 59363  30660.000000  0      -4025169.947      -1091615.975       5578456.491
10 0 59363  30720.000000  0      -4389353.594      -1067800.997       5301398.818
10 0 59363  30780.000000  0      -4734792.562      -1036379.994       5001831.568
10 0 59363  30840.000000  0      -5059956.409       -997654.141       4681017.125
10 0 59363  30900.000000  0      -5363402.076       -951968.640       4340309.530
10 0 59363  30960.000000  0      -5643780.604       -899710.505       3981148.867
10 0 59363  31020.000000  0      -5899843.462       -841306.124       3605055.281
10 0 59363  31080.000000  0      -6130448.463       -777218.597       3213622.630
10 0 59363  31140.000000  0      -6334565.281       -707944.851       2808511.795
10 0 59363  31200.000000  0      -6511280.534       -634012.535       2391443.575
10 0 59363  31260.000000  0      -6659802.278       -555976.721       1964191.193
10 0 59363  31320.000000  0      -6779463.868       -474416.474       1528572.538
10 0 59363  31380.000000  0      -6869727.231       -389931.267       1086442.176
10 0 59363  31440.000000  0      -6930185.505       -303137.266        639683.170
10 0 59363  31500.000000  0      -6960565.028       -214663.525        190198.745
10 0 59363  31560.000000  0      -6960726.700       -125148.075       -260096.146
10 0 59363  31620.000000  0      -6930666.641        -35233.969       -709283.356
10 0 59363  31680.000000  0      -6870516.132         54434.691      -1155450.082
10 0 59363  31740.000000  0      -6780540.866        143216.706      -1596697.272
10 0 59363  31800.000000  0      -6661139.658        230477.710      -2031147.924
10 0 59363  31860.000000  0      -6512842.577        315594.061      -2456955.374
10 0 59363  31920.000000  0      -6336308.317        397956.661      -2872311.518
10 0 59363  31980.000000  0      -6132320.829        476974.693      -3275454.739
10 0 59363  32040.000000  0      -5901785.391        552079.236      -3664677.477
10 0 59363  32100.000000  0      -5645724.179        622726.712      -4038333.499
10 0 59363  32160.000000  0      -5365271.322        688402.184      -4394844.891
10 0 59363  32220.000000  0      -5061667.411        748622.459      -4732708.694
10 0 59363  32280.000000  0      -4736253.539        802938.986      -5050503.079
10 0 59363  32340.000000  0      -4390464.990        850940.559      -5346893.139
10 0 59363  32400.000000  0      -4025824.544        892255.777      -5620636.278
10 0 59363  32460.000000  0      -3643935.432        926555.252      -5870587.169
10 0 59363  32520.000000  0      -3246473.954        953553.555      -6095702.220
10 0 59363  32580.000000  0      -2835181.925        973010.913      -6295043.527
10 0 59363  32640.000000  0      -2411858.957        984734.686      -6467782.510
10 0 59363  32700.000000  0      -1978354.387        988580.599      -6613203.083
10 0 59363  32760.000000  0      -1536559.104        984453.665      -6730704.214
10 0 59363  32820.000000  0      -1088397.335        972308.839      -6819802.055
10 0 59363  32880.000000  0       -635818.330        952151.390      -6880131.638
10 0 59363  32940.000000  0       -180788.026        924037.032      -6911448.099
10 0 59363  33000.000000  0        274719.264        888071.778      -6913627.537
10 0 59363  33060.000000  0        728729.272        844411.499      -6886667.522
10 0 59363  33120.000000  0       1179276.308        793261.233      -6830687.060
10 0 59363  33180.000000  0       1624411.661        734874.226      -6745925.936
10 0 59363  33240.000000  0       2062211.822        669550.698      -6632743.688
10 0 59363  33300.000000  0       2490786.673        597636.377      -6491618.200
10 0 59363  33360.000000  0       2908287.601        519520.803      -6323143.756
10 0 59363  33420.000000  0       3312915.344        435635.344      -6128028.617
10 0 59363  33480.000000  0       3702927.636        346450.942      -5907092.268
10 0 59363  33540.000000  0       4076646.689        252475.659      -5661262.186
10 0 59363  33600.000000  0       4432466.384        154252.043      -5391570.217
10 0 59363  33660.000000  0       4768859.319         52354.273      -5099148.565
10 0 59363  33720.000000  0       5084383.534        -52614.933      -4785225.224
10 0 59363  33780.000000  0       5377688.814       -160027.577      -4451119.023
10 0 59363  33840.000000  0       5647522.645       -269233.807      -4098234.302
10 0 59363  33900.000000  0       5892735.765       -379565.488      -3728055.192
10 0 59363  33960.000000  0       6112287.283       -490339.922      -3342139.570
10 0 59363  34020.000000  0       6305249.389       -600863.706      -2942112.650
10 0 59363  34080.000000  0       6470811.563       -710436.669      -2529660.218
10 0 59363  34140.000000  0       6608284.244       -818355.874      -2106521.535
10 0 59363  34200.000000  0       6717101.940       -923919.654      -1674482.004
10 0 59363  34260.000000  0       6796825.780      -1026431.696      -1235365.602
10 0 59363  34320.000000  0       6847145.468      -1125205.120       -791027.108
10 0 59363  34380.000000  0       6867880.650      -1219566.537       -343344.197
10 0 59363  34440.000000  0       6858981.721      -1308860.063        105790.612
10 0 59363  34500.000000  0       6820529.971      -1392451.268        554478.164
10 0 59363  34560.000000  0       6752737.028      -1469731.017       1000820.856
10 0 59363  34620.000000  0       6655943.773      -1540119.228       1442930.751
10 0 59363  34680.000000  0       6530618.697      -1603068.488       1878937.770
10 0 59363  34740.000000  0       6377355.526      -1658067.450       2306997.833
10 0 59363  34800.000000  0       6196870.248      -1704644.030       2725300.760
10 0 59363  34860.000000  0       5989997.643      -1742368.446       3132078.002
10 0 59363  34920.000000  0       5757687.232      -1770856.061       3525610.197
10 0 59363  34980.000000  0       5500998.707      -1789769.963       3904234.454
10 0 59363  35040.000000  0       5221096.882      -1798823.285       4266351.367
10 0 59363  35100.000000  0       4919246.208      -1797781.262       4610431.707
10 0 59363  35160.000000  0       4596804.890      -1786462.980       4935022.795
10 0 59363  35220.000000  0       4255218.638      -1764742.868       5238754.578
10 0 59363  35280.000000  0       3896013.994      -1732551.934       5520345.341
10 0 59363  35340.000000  0       3520791.295      -1689878.684       5778606.975
10 0 59363  35400.000000  0       3131217.393      -1636769.744       6012449.762
10 0 59363  35460.000000  0       2729018.193      -1573330.175       6220886.764
10 0 59363  35520.000000  0       2315970.988      -1499723.515       6403037.852
10 0 59363  35580.000000  0       1893896.545      -1416171.536       6558133.277
10 0 59363  35640.000000  0       1464651.069      -1322953.659       6685516.780
10 0 59363  35700.000000  0       1030118.017      -1220406.063       6784648.256
10 0 59363  35760.000000  0        592199.883      -1108920.503       6855105.885
10 0 59363  35820.000000  0        152809.938       -988942.845       6896587.868
10 0 59363  35880.000000  0       -286136.054       -860971.309       6908913.639
10 0 59363  35940.000000  0       -722728.055       -725554.475       6892024.674
99
